      2.10          N: GNSS NAV DATA                        RINEX VERSION / TYPE
fic2rin                                 04/23/2018 00:09:47 PGM / RUN BY / DATE
                                                            END OF HEADER
 2 18  4 22 18  0  0.0 1.369146630168e-04-1.125499693444e-11 0.000000000000e+00
    7.500000000000e+01-7.609375000000e+01 4.826629619926e-09-1.195242683021e+00
   -3.777444362640e-06 1.787907443941e-02 7.277354598045e-06 5.153722290039e+03
    6.480000000000e+04 3.352761268616e-08-2.181191849956e+00 4.675239324570e-07
    9.497933982274e-01 2.341250000000e+02-1.864602879257e+00-8.396064015482e-09
   -1.289339420448e-10 1.000000000000e+00 1.998000000000e+03 0.000000000000e+00
    2.400000000000e+00 0.000000000000e+00-2.048909664154e-08 7.500000000000e+01
    5.760600000000e+04 4.000000000000e+00
 6 18  4 22 18  0  0.0 4.075546748936e-04-1.932676241267e-12 0.000000000000e+00
    3.100000000000e+01-7.793750000000e+01 4.203746531488e-09-1.370973780389e+00
   -4.081055521965e-06 1.218190300278e-03 7.437542080879e-06 5.153615171432e+03
    6.480000000000e+04 3.725290298462e-09-2.129128551436e+00 3.725290298462e-08
    9.704363894737e-01 2.430000000000e+02-1.110925673279e+00-8.009262189347e-09
   -4.357324357192e-11 1.000000000000e+00 1.998000000000e+03 0.000000000000e+00
    2.400000000000e+00 0.000000000000e+00 4.656612873077e-09 3.100000000000e+01
    5.760600000000e+04 4.000000000000e+00
 7 18  4 22 18  0  0.0 2.034003846347e-04-6.025402399246e-12 0.000000000000e+00
    8.000000000000e+01 1.562500000000e+01 4.672694636487e-09-2.230680063018e+00
    5.438923835754e-07 1.143489952665e-02 8.661299943924e-06 5.153671443939e+03
    6.480000000000e+04 8.940696716309e-08 1.033863414732e+00-1.434236764908e-07
    9.588932709422e-01 2.112187500000e+02-2.539357869717e+00-7.970331996320e-09
   -1.700070814773e-10 1.000000000000e+00 1.998000000000e+03 0.000000000000e+00
    2.400000000000e+00 0.000000000000e+00-1.117587089539e-08 8.000000000000e+01
    5.760600000000e+04 4.000000000000e+00
 4 18  4 22 18  0  0.0 5.493313074112e-05 3.069544618484e-12 0.000000000000e+00
    8.200000000000e+01 8.631250000000e+01 5.449512708364e-09 1.847926242208e+00
    4.339963197708e-06 9.827476926148e-03 8.292496204376e-06 5.153697010040e+03
    6.480000000000e+04-2.142041921616e-07 2.091490712126e+00-1.285225152969e-07
    9.792416758378e-01 2.300625000000e+02 9.164488592135e-01-7.947831059065e-09
    4.143029716675e-11 1.000000000000e+00 1.998000000000e+03 0.000000000000e+00
    3.400000000000e+00 6.300000000000e+01-1.955777406693e-08 8.200000000000e+01
    5.760600000000e+04 4.000000000000e+00
21 18  4 22 18  0  0.0-4.042144864798e-04 4.661160346586e-12 0.000000000000e+00
    9.000000000000e+00-1.070937500000e+02 4.633050127992e-09 2.944276769037e+00
   -5.457550287247e-06 2.446381724440e-02 7.225200533867e-06 5.153730127335e+03
    6.480000000000e+04 3.408640623093e-07-2.174076776716e+00-3.725290298462e-08
    9.433269653088e-01 2.252187500000e+02-1.565796298089e+00-7.861398887390e-09
   -1.717928701483e-10 1.000000000000e+00 1.998000000000e+03 0.000000000000e+00
    2.400000000000e+00 0.000000000000e+00-1.024454832077e-08 9.000000000000e+00
    5.760600000000e+04 4.000000000000e+00
26 18  4 22 18  0  0.0-1.737866550684e-04 1.296029950026e-11 0.000000000000e+00
    1.300000000000e+01 8.806250000000e+01 4.698767151084e-09 2.455993001670e+00
    4.561617970467e-06 2.787391189486e-03 8.238479495049e-06 5.153649536133e+03
    6.480000000000e+04-7.450580596924e-08 2.045375934026e+00 3.725290298462e-08
    9.559622575166e-01 2.188125000000e+02 1.099945472458e-01-8.173197589343e-09
    2.035799084918e-11 1.000000000000e+00 1.998000000000e+03 0.000000000000e+00
    2.400000000000e+00 0.000000000000e+00 7.450580596924e-09 1.300000000000e+01
    5.760600000000e+04 4.000000000000e+00
14 18  4 22 18  0  0.0-9.637139737606e-05-3.410605131648e-13 0.000000000000e+00
    7.700000000000e+01 2.137500000000e+01 4.836987194218e-09 2.709288821669e-01
    1.003965735435e-06 9.660256211646e-03 7.184222340584e-06 5.153747734070e+03
    6.480000000000e+04-1.564621925354e-07 4.570309978613e-02 7.264316082001e-08
    9.614871051572e-01 2.430000000000e+02-1.957231580951e+00-8.257843972348e-09
    2.714398779890e-11 1.000000000000e+00 1.998000000000e+03 0.000000000000e+00
    2.400000000000e+00 0.000000000000e+00-9.778887033463e-09 7.700000000000e+01
    5.760600000000e+04 4.000000000000e+00
 8 18  4 22 18  0  0.0-9.874580428004e-05-1.364242052659e-12 0.000000000000e+00
    5.300000000000e+01 2.031250000000e+00 4.550546691392e-09 9.324932903628e-01
   -9.313225746155e-09 3.493864787742e-03 3.198161721230e-06 5.153553176880e+03
    6.480000000000e+04-7.450580596924e-09 3.098063062396e+00-2.793967723846e-08
    9.693072361542e-01 3.165937500000e+02-4.728473322865e-01-8.372848762759e-09
   -7.071723137082e-11 1.000000000000e+00 1.998000000000e+03 0.000000000000e+00
    3.400000000000e+00 0.000000000000e+00 5.122274160385e-09 5.300000000000e+01
    5.760600000000e+04 4.000000000000e+00
11 18  4 22 18  0  0.0-7.372219115496e-04 3.410605131648e-13 0.000000000000e+00
    8.400000000000e+01-7.325000000000e+01 5.672736292236e-09-2.247040649782e+00
   -3.607943654060e-06 1.674735278357e-02 3.796070814133e-06 5.153628398895e+03
    6.480000000000e+04 3.147870302200e-07-2.545416765843e+00 2.179294824600e-07
    9.049882697425e-01 2.744062500000e+02 1.752739471720e+00-8.566785412427e-09
   -1.553636143753e-10 1.000000000000e+00 1.998000000000e+03 0.000000000000e+00
    2.400000000000e+00 0.000000000000e+00-1.210719347000e-08 8.400000000000e+01
    5.760600000000e+04 4.000000000000e+00
13 18  4 22 18  0  0.0-9.497022256255e-05 2.273736754432e-13 0.000000000000e+00
    7.900000000000e+01 1.506250000000e+01 4.631978654789e-09-7.759264329990e-01
    7.767230272293e-07 3.479815670289e-03 7.221475243568e-06 5.153654830933e+03
    6.480000000000e+04-5.401670932770e-08 8.734357219894e-02-3.352761268616e-08
    9.689426784318e-01 2.477812500000e+02 1.599699772751e+00-8.116766667340e-09
    7.143154683922e-13 1.000000000000e+00 1.998000000000e+03 0.000000000000e+00
    2.400000000000e+00 0.000000000000e+00-1.117587089539e-08 7.900000000000e+01
    5.760600000000e+04 4.000000000000e+00
30 18  4 22 18  0  0.0 8.197873830795e-05-3.979039320257e-12 0.000000000000e+00
    9.000000000000e+00 1.818750000000e+01 5.026995108810e-09-2.090664061007e+00
    7.972121238708e-07 3.286037826911e-03 8.907169103622e-06 5.153747829437e+03
    6.480000000000e+04-4.470348358154e-08 1.067958012326e+00-5.215406417847e-08
    9.444917026477e-01 2.038125000000e+02-3.118231598588e+00-8.233914404157e-09
   -2.421529437849e-10 1.000000000000e+00 1.998000000000e+03 0.000000000000e+00
    2.400000000000e+00 0.000000000000e+00 3.725290298462e-09 9.000000000000e+00
    5.760600000000e+04 4.000000000000e+00
27 18  4 22 18  0  0.0 3.700898960233e-04-2.273736754432e-13 0.000000000000e+00
    7.000000000000e+00 3.156250000000e+00 4.406969282245e-09 6.622409931784e-01
    2.942979335785e-07 5.859359982423e-03 3.296881914139e-06 5.153681955338e+03
    6.480000000000e+04-3.911554813385e-08 3.106238918016e+00 5.587935447693e-08
    9.774957650336e-01 3.195312500000e+02 3.948741512248e-01-8.344990459491e-09
   -9.000374901741e-11 1.000000000000e+00 1.998000000000e+03 0.000000000000e+00
    2.400000000000e+00 0.000000000000e+00 1.396983861923e-09 7.000000000000e+00
    5.760600000000e+04 4.000000000000e+00
24 18  4 22 18  0  0.0-4.883576184511e-05-4.547473508865e-13 0.000000000000e+00
    4.300000000000e+01 3.096875000000e+01 5.094497920573e-09-1.299778936621e+00
    1.547858119011e-06 6.908146897331e-03 8.162111043930e-06 5.153649225235e+03
    6.480000000000e+04 1.564621925354e-07 9.747044690621e-01-3.166496753693e-08
    9.419941723298e-01 2.106875000000e+02 5.465766713866e-01-8.239628927904e-09
   -2.164375869228e-10 1.000000000000e+00 1.998000000000e+03 0.000000000000e+00
    2.400000000000e+00 0.000000000000e+00 2.793967723846e-09 4.300000000000e+01
    5.760600000000e+04 4.000000000000e+00
23 18  4 22 18  0  0.0-2.177557907999e-04 3.410605131648e-13 0.000000000000e+00
    8.100000000000e+01 2.415625000000e+01 5.216645865668e-09-6.779027015514e-01
    1.519918441772e-06 1.231459248811e-02 6.806105375290e-06 5.153551021576e+03
    6.480000000000e+04 9.872019290924e-08-4.507691672023e-02 2.160668373108e-07
    9.439898676185e-01 2.387812500000e+02-2.370567929498e+00-8.471781455131e-09
    1.671498196038e-10 1.000000000000e+00 1.998000000000e+03 0.000000000000e+00
    2.400000000000e+00 0.000000000000e+00-2.002343535423e-08 8.100000000000e+01
    5.760600000000e+04 4.000000000000e+00
12 18  4 22 18  0  0.0 3.380621783435e-04-2.273736754432e-12 0.000000000000e+00
    5.700000000000e+01 6.962500000000e+01 3.995880730186e-09-2.830152554734e+00
    3.652647137642e-06 7.184442249127e-03 6.875023245811e-06 5.153609710693e+03
    6.480000000000e+04 1.098960638046e-07 2.126056296196e+00-1.247972249985e-07
    9.867730765452e-01 2.582187500000e+02 9.627568156458e-01-7.803896492184e-09
    3.357282701443e-11 1.000000000000e+00 1.998000000000e+03 0.000000000000e+00
    2.400000000000e+00 0.000000000000e+00-1.257285475731e-08 5.700000000000e+01
    5.760600000000e+04 4.000000000000e+00
10 18  4 22 18  0  0.0 1.806719228625e-04 2.501110429876e-12 0.000000000000e+00
    7.700000000000e+01-2.206250000000e+01 4.409112228651e-09 2.629935942085e+00
   -1.024454832077e-06 3.459664876573e-03 1.051463186741e-05 5.153666099548e+03
    6.480000000000e+04-4.284083843231e-08-1.081141218557e+00 1.117587089539e-08
    9.608057086372e-01 1.750625000000e+02-2.755670585244e+00-7.868184884340e-09
    3.910877189447e-10 1.000000000000e+00 1.998000000000e+03 0.000000000000e+00
    2.400000000000e+00 0.000000000000e+00 1.862645149231e-09 7.700000000000e+01
    5.760600000000e+04 4.000000000000e+00
